[
    {
        "Altitude(m)": 702671.4426000406,
        "Argument of Periapsis(deg)": 0.0011390121186627068,
        "Eccentricity": 0.0,
        "Inclination(deg)": 45.0,
        "Latitude(deg)": 12.30173418825033,
        "Longitude(deg)": -87.52290673252836,
        "Mean Anomaly(deg)": 17.516921664748082,
        "RAAN(deg)": -0.0010751941458203933,
        "Satellite Name": "Constellation 1 1",
        "Satellite Number": 1,
        "Semi-Major Axis(m)": 7083131.272910544,
        "Time(s)": 19
    },
    {
        "Altitude(m)": 702671.6714407786,
        "Argument of Periapsis(deg)": 0.0011989601249081123,
        "Eccentricity": 0.0,
        "Inclination(deg)": 45.0,
        "Latitude(deg)": 12.343912547183077,
        "Longitude(deg)": -87.48211192643375,
        "Mean Anomaly(deg)": 17.577622804997983,
        "RAAN(deg)": -0.0011317833113898878,
        "Satellite Name": "Constellation 1 1",
        "Satellite Number": 1,
        "Semi-Major Axis(m)": 7083131.272910544,
        "Time(s)": 20
    },
    {
        "Altitude(m)": 702671.9189882153,
        "Argument of Periapsis(deg)": 0.001258908131153518,
        "Eccentricity": 0.0,
        "Inclination(deg)": 45.0,
        "Latitude(deg)": 12.386083415124435,
        "Longitude(deg)": -87.44130271557997,
        "Mean Anomaly(deg)": 17.638323945247883,
        "RAAN(deg)": -0.0011883724769593822,
        "Satellite Name": "Constellation 1 1",
        "Satellite Number": 1,
        "Semi-Major Axis(m)": 7083131.272910544,
        "Time(s)": 21
    },
    {
        "Altitude(m)": 702672.1852230926,
        "Argument of Periapsis(deg)": 0.0013188561373989236,
        "Eccentricity": 0.0,
        "Inclination(deg)": 45.0,
        "Latitude(deg)": 12.42824676316025,
        "Longitude(deg)": -87.40047921542464,
        "Mean Anomaly(deg)": 17.69902508549778,
        "RAAN(deg)": -0.0012449616425288764,
        "Satellite Name": "Constellation 1 1",
        "Satellite Number": 1,
        "Semi-Major Axis(m)": 7083131.272910544,
        "Time(s)": 22
    },
    {
        "Altitude(m)": 702672.4701260758,
        "Argument of Periapsis(deg)": 0.0013788041436443293,
        "Eccentricity": 0.0,
        "Inclination(deg)": 45.0,
        "Latitude(deg)": 12.470402562348275,
        "Longitude(deg)": -87.35964103710678,
        "Mean Anomaly(deg)": 17.75972622574768,
        "RAAN(deg)": -0.001301550808098371,
        "Satellite Name": "Constellation 1 1",
        "Satellite Number": 1,
        "Semi-Major Axis(m)": 7083131.272910544,
        "Time(s)": 23
    },
    {
        "Altitude(m)": 702672.773677749,
        "Argument of Periapsis(deg)": 0.001438752149889735,
        "Eccentricity": 0.0,
        "Inclination(deg)": 45.0,
        "Latitude(deg)": 12.512550783718154,
        "Longitude(deg)": -87.31878829602877,
        "Mean Anomaly(deg)": 17.820427365997578,
        "RAAN(deg)": -0.0013581399736678655,
        "Satellite Name": "Constellation 1 1",
        "Satellite Number": 1,
        "Semi-Major Axis(m)": 7083131.272910544,
        "Time(s)": 24
    },
    {
        "Altitude(m)": 702673.0958586223,
        "Argument of Periapsis(deg)": 0.0014987001561351404,
        "Eccentricity": 0.0,
        "Inclination(deg)": 45.0,
        "Latitude(deg)": 12.554691398271295,
        "Longitude(deg)": -87.27792093946817,
        "Mean Anomaly(deg)": 17.881128506247478,
        "RAAN(deg)": -0.0014147291392373595,
        "Satellite Name": "Constellation 1 1",
        "Satellite Number": 1,
        "Semi-Major Axis(m)": 7083131.272910544,
        "Time(s)": 25
    },
    {
        "Altitude(m)": 702673.4366491225,
        "Argument of Periapsis(deg)": 0.001558648162380546,
        "Eccentricity": 0.0,
        "Inclination(deg)": 45.0,
        "Latitude(deg)": 12.596824376980685,
        "Longitude(deg)": -87.23703891467487,
        "Mean Anomaly(deg)": 17.94182964649738,
        "RAAN(deg)": -0.001471318304806854,
        "Satellite Name": "Constellation 1 1",
        "Satellite Number": 1,
        "Semi-Major Axis(m)": 7083131.272910544,
        "Time(s)": 26
    },
    {
        "Altitude(m)": 702673.7960295992,
        "Argument of Periapsis(deg)": 0.0016185961686259519,
        "Eccentricity": 0.0,
        "Inclination(deg)": 45.0,
        "Latitude(deg)": 12.638949690790906,
        "Longitude(deg)": -87.19614216887082,
        "Mean Anomaly(deg)": 18.002530786747275,
        "RAAN(deg)": -0.0015279074703763483,
        "Satellite Name": "Constellation 1 1",
        "Satellite Number": 1,
        "Semi-Major Axis(m)": 7083131.272910544,
        "Time(s)": 27
    },
    {
        "Altitude(m)": 702674.1739803309,
        "Argument of Periapsis(deg)": 0.0016785441748713573,
        "Eccentricity": 0.0,
        "Inclination(deg)": 45.0,
        "Latitude(deg)": 12.681067310617925,
        "Longitude(deg)": -87.15523064925013,
        "Mean Anomaly(deg)": 18.063231926997176,
        "RAAN(deg)": -0.0015844966359458428,
        "Satellite Name": "Constellation 1 1",
        "Satellite Number": 1,
        "Semi-Major Axis(m)": 7083131.272910544,
        "Time(s)": 28
    },
    {
        "Altitude(m)": 702674.5704815071,
        "Argument of Periapsis(deg)": 0.001738492181116763,
        "Eccentricity": 0.0,
        "Inclination(deg)": 45.0,
        "Latitude(deg)": 12.72317720734904,
        "Longitude(deg)": -87.114304302979,
        "Mean Anomaly(deg)": 18.123933067247076,
        "RAAN(deg)": -0.0016410858015153372,
        "Satellite Name": "Constellation 1 1",
        "Satellite Number": 1,
        "Semi-Major Axis(m)": 7083131.272910544,
        "Time(s)": 29
    },
    {
        "Altitude(m)": 702674.9855132509,
        "Argument of Periapsis(deg)": 0.0017984401873621684,
        "Eccentricity": 0.0,
        "Inclination(deg)": 45.0,
        "Latitude(deg)": 12.765279351842787,
        "Longitude(deg)": -87.07336324529254,
        "Mean Anomaly(deg)": 18.184634207496973,
        "RAAN(deg)": -0.0016976749670848316,
        "Satellite Name": "Constellation 1 1",
        "Satellite Number": 1,
        "Semi-Major Axis(m)": 7083131.272910544,
        "Time(s)": 30
    },
    {
        "Altitude(m)": 702675.419055597,
        "Argument of Periapsis(deg)": 0.0018583881936075745,
        "Eccentricity": 0.0,
        "Inclination(deg)": 45.0,
        "Latitude(deg)": 12.807373714928746,
        "Longitude(deg)": -87.03240708710683,
        "Mean Anomaly(deg)": 18.245335347746874,
        "RAAN(deg)": -0.001754264132654326,
        "Satellite Name": "Constellation 1 1",
        "Satellite Number": 1,
        "Semi-Major Axis(m)": 7083131.272910544,
        "Time(s)": 31
    },
    {
        "Altitude(m)": 702675.8710885091,
        "Argument of Periapsis(deg)": 0.0019183361998529795,
        "Eccentricity": 0.0,
        "Inclination(deg)": 45.0,
        "Latitude(deg)": 12.849460267407572,
        "Longitude(deg)": -86.99143594360082,
        "Mean Anomaly(deg)": 18.306036487996774,
        "RAAN(deg)": -0.0018108532982238203,
        "Satellite Name": "Constellation 1 1",
        "Satellite Number": 1,
        "Semi-Major Axis(m)": 7083131.272910544,
        "Time(s)": 32
    },
    {
        "Altitude(m)": 702676.3415918717,
        "Argument of Periapsis(deg)": 0.0019782842060983856,
        "Eccentricity": 0.0,
        "Inclination(deg)": 45.0,
        "Latitude(deg)": 12.891538980050774,
        "Longitude(deg)": -86.95044976182827,
        "Mean Anomaly(deg)": 18.36673762824667,
        "RAAN(deg)": -0.001867442463793315,
        "Satellite Name": "Constellation 1 1",
        "Satellite Number": 1,
        "Semi-Major Axis(m)": 7083131.272910544,
        "Time(s)": 33
    },
    {
        "Altitude(m)": 702676.8305454974,
        "Argument of Periapsis(deg)": 0.0020382322123437906,
        "Eccentricity": 0.0,
        "Inclination(deg)": 45.0,
        "Latitude(deg)": 12.933609823600671,
        "Longitude(deg)": -86.90944848881462,
        "Mean Anomaly(deg)": 18.42743876849657,
        "RAAN(deg)": -0.0019240316293628091,
        "Satellite Name": "Constellation 1 1",
        "Satellite Number": 1,
        "Semi-Major Axis(m)": 7083131.272910544,
        "Time(s)": 34
    },
    {
        "Altitude(m)": 702677.3379291084,
        "Argument of Periapsis(deg)": 0.002098180218589197,
        "Eccentricity": 0.0,
        "Inclination(deg)": 45.0,
        "Latitude(deg)": 12.975672768770258,
        "Longitude(deg)": -86.86843207155721,
        "Mean Anomaly(deg)": 18.488139908746472,
        "RAAN(deg)": -0.0019806207949323034,
        "Satellite Name": "Constellation 1 1",
        "Satellite Number": 1,
        "Semi-Major Axis(m)": 7083131.272910544,
        "Time(s)": 35
    },
    {
        "Altitude(m)": 702677.8637223637,
        "Argument of Periapsis(deg)": 0.002158128224834602,
        "Eccentricity": 0.0,
        "Inclination(deg)": 45.0,
        "Latitude(deg)": 13.01772778624311,
        "Longitude(deg)": -86.82740045702485,
        "Mean Anomaly(deg)": 18.54884104899637,
        "RAAN(deg)": -0.002037209960501798,
        "Satellite Name": "Constellation 1 1",
        "Satellite Number": 1,
        "Semi-Major Axis(m)": 7083131.272910544,
        "Time(s)": 36
    },
    {
        "Altitude(m)": 702678.4079048418,
        "Argument of Periapsis(deg)": 0.002218076231080008,
        "Eccentricity": 0.0,
        "Inclination(deg)": 45.0,
        "Latitude(deg)": 13.059774846673283,
        "Longitude(deg)": -86.78635376025495,
        "Mean Anomaly(deg)": 18.60954218924627,
        "RAAN(deg)": -0.002093799126071292,
        "Satellite Name": "Constellation 1 1",
        "Satellite Number": 1,
        "Semi-Major Axis(m)": 7083131.272910544,
        "Time(s)": 37
    }
]